{"type": "FeatureCollection", "features": [ {"type": "Feature", "properties": {"norad_id": 66820, "name": "KOMPSAT-7", "group": "last-30-days", "lat": 51.33248734793601, "lon": -62.95364761301476, "alt_km": 565.9338420937065, "timestamp": "2025-12-27T02:10:14.907946+00:00", "meta": {"OBJECT_NAME": "KOMPSAT-7", "OBJECT_ID": "2025-279A", "EPOCH": "2025-12-26T14:44:20.116608", "MEAN_MOTION": 15.00851437, "ECCENTRICITY": 0.00099888, "INCLINATION": 97.6455, "RA_OF_ASC_NODE": 306.2415, "ARG_OF_PERICENTER": 210.75, "MEAN_ANOMALY": 149.314, "EPHEMERIS_TYPE": 0, "CLASSIFICATION_TYPE": "U", "NORAD_CAT_ID": 66820, "ELEMENT_SET_NO": 999, "REV_AT_EPOCH": 373, "BSTAR": 0.00024502475, "MEAN_MOTION_DOT": 3.059e-05, "MEAN_MOTION_DDOT": 0}, "tle": {"line1": "1 66820U 25279A   25360.61412172  .00003059  00000+0  24502-3 0  9999", "line2": "2 66820  97.6455 306.2415 0009988 210.7500 149.3140 15.00851437  3739"}}, "geometry": {"type": "Point", "coordinates": [-62.95364761301476, 51.33248734793601]}}, {"type": "Feature", "properties": {"norad_id": 66821, "name": "STARLINK-35966", "group": "last-30-days", "lat": -69.97114859859077, "lon": 71.5003194262753, "alt_km": 413.81453680799405, "timestamp": "2025-12-27T02:10:14.907956+00:00", "meta": {"OBJECT_NAME": "STARLINK-35966", "OBJECT_ID": "2025-280A", "EPOCH": "2025-12-26T08:00:01.000224", "MEAN_MOTION": 15.52498141, "ECCENTRICITY": 0.000321, "INCLINATION": 70.0004, "RA_OF_ASC_NODE": 161.183, "ARG_OF_PERICENTER": 267.437, "MEAN_ANOMALY": 93.1401, "EPHEMERIS_TYPE": 0, "CLASSIFICATION_TYPE": "U", "NORAD_CAT_ID": 66821, "ELEMENT_SET_NO": 999, "REV_AT_EPOCH": 508, "BSTAR": 0.00036399, "MEAN_MOTION_DOT": 0.00022271, "MEAN_MOTION_DDOT": 0}, "tle": {"line1": "1 66821U 25280A   25360.33334491  .00022271  00000+0  36399-3 0  9992", "line2": "2 66821  70.0004 161.1830 0003210 267.4370  93.1401 15.52498141  5082"}}, "geometry": {"type": "Point", "coordinates": [71.5003194262753, -69.97114859859077]}}, {"type": "Feature", "properties": {"norad_id": 66822, "name": "STARLINK-35958", "group": "last-30-days", "lat": -69.72834665056324, "lon": 78.66295248430195, "alt_km": 413.0045895169951, "timestamp": "2025-12-27T02:10:14.907967+00:00", "meta": {"OBJECT_NAME": "STARLINK-35958", "OBJECT_ID": "2025-280B", "EPOCH": "2025-12-25T21:09:55.876608", "MEAN_MOTION": 15.52524711, "ECCENTRICITY": 0.0003381, "INCLINATION": 70.0003, "RA_OF_ASC_NODE": 162.418, "ARG_OF_PERICENTER": 268.924, "MEAN_ANOMALY": 91.156, "EPHEMERIS_TYPE": 0, "CLASSIFICATION_TYPE": "U", "NORAD_CAT_ID": 66822, "ELEMENT_SET_NO": 999, "REV_AT_EPOCH": 497, "BSTAR": 0.0016095, "MEAN_MOTION_DOT": 0.00100126, "MEAN_MOTION_DDOT": 0}, "tle": {"line1": "1 66822U 25280B   25359.88189672  .00100126  00000+0  16095-2 0  9996", "line2": "2 66822  70.0003 162.4180 0003381 268.9240  91.1560 15.52524711  4979"}}, "geometry": {"type": "Point", "coordinates": [78.66295248430195, -69.72834665056324]}}, {"type": "Feature", "properties": {"norad_id": 66823, "name": "STARLINK-35957", "group": "last-30-days", "lat": -69.46300147867248, "lon": 82.63517503333715, "alt_km": 413.44879948390917, "timestamp": "2025-12-27T02:10:14.907979+00:00", "meta": {"OBJECT_NAME": "STARLINK-35957", "OBJECT_ID": "2025-280C", "EPOCH": "2025-12-26T18:48:21.921120", "MEAN_MOTION": 15.52571307, "ECCENTRICITY": 0.0003444, "INCLINATION": 70.0004, "RA_OF_ASC_NODE": 159.9449, "ARG_OF_PERICENTER": 280.4261, "MEAN_ANOMALY": 79.6537, "EPHEMERIS_TYPE": 0, "CLASSIFICATION_TYPE": "U", "NORAD_CAT_ID": 66823, "ELEMENT_SET_NO": 999, "REV_AT_EPOCH": 511, "BSTAR": 0.00080865, "MEAN_MOTION_DOT": 0.0004999, "MEAN_MOTION_DDOT": 0}, "tle": {"line1": "1 66823U 25280C   25360.78358705  .00049990  00000+0  80865-3 0  9991", "line2": "2 66823  70.0004 159.9449 0003444 280.4261  79.6537 15.52571307  5117"}}, "geometry": {"type": "Point", "coordinates": [82.63517503333715, -69.46300147867248]}}, {"type": "Feature", "properties": {"norad_id": 66824, "name": "STARLINK-35896", "group": "last-30-days", "lat": -68.9650021508678, "lon": 87.82147541103025, "alt_km": 413.68023323208763, "timestamp": "2025-12-27T02:10:14.907989+00:00", "meta": {"OBJECT_NAME": "STARLINK-35896", "OBJECT_ID": "2025-280D", "EPOCH": "2025-12-26T20:20:38.727744", "MEAN_MOTION": 15.52537517, "ECCENTRICITY": 0.0003134, "INCLINATION": 70.0004, "RA_OF_ASC_NODE": 159.7674, "ARG_OF_PERICENTER": 276.5826, "MEAN_ANOMALY": 83.5004, "EPHEMERIS_TYPE": 0, "CLASSIFICATION_TYPE": "U", "NORAD_CAT_ID": 66824, "ELEMENT_SET_NO": 999, "REV_AT_EPOCH": 512, "BSTAR": 0.0016948, "MEAN_MOTION_DOT": 0.00105564, "MEAN_MOTION_DDOT": 0}, "tle": {"line1": "1 66824U 25280D   25360.84767046  .00105564  00000+0  16948-2 0  9991", "line2": "2 66824  70.0004 159.7674 0003134 276.5826  83.5004 15.52537517  5124"}}, "geometry": {"type": "Point", "coordinates": [87.82147541103025, -68.9650021508678]}}, {"type": "Feature", "properties": {"norad_id": 66825, "name": "STARLINK-35476", "group": "last-30-days", "lat": -68.318911024065, "lon": 92.73257151250858, "alt_km": 413.59331886846394, "timestamp": "2025-12-27T02:10:14.907999+00:00", "meta": {"OBJECT_NAME": "STARLINK-35476", "OBJECT_ID": "2025-280E", "EPOCH": "2025-12-26T20:20:09.091680", "MEAN_MOTION": 15.5252939, "ECCENTRICITY": 0.0003329, "INCLINATION": 70.0004, "RA_OF_ASC_NODE": 159.7654, "ARG_OF_PERICENTER": 275.0224, "MEAN_ANOMALY": 85.0583, "EPHEMERIS_TYPE": 0, "CLASSIFICATION_TYPE": "U", "NORAD_CAT_ID": 66825, "ELEMENT_SET_NO": 999, "REV_AT_EPOCH": 512, "BSTAR": 0.0014538, "MEAN_MOTION_DOT": 0.0009033, "MEAN_MOTION_DDOT": 0}, "tle": {"line1": "1 66825U 25280E   25360.84732745  .00090330  00000+0  14538-2 0  9997", "line2": "2 66825  70.0004 159.7654 0003329 275.0224  85.0583 15.52529390  5124"}}, "geometry": {"type": "Point", "coordinates": [92.73257151250858, -68.318911024065]}}, {"type": "Feature", "properties": {"norad_id": 66826, "name": "STARLINK-35898", "group": "last-30-days", "lat": -67.57532747598357, "lon": 97.14152164764951, "alt_km": 413.7970872206797, "timestamp": "2025-12-27T02:10:14.908009+00:00", "meta": {"OBJECT_NAME": "STARLINK-35898", "OBJECT_ID": "2025-280F", "EPOCH": "2025-12-26T20:19:41.475648", "MEAN_MOTION": 15.52561106, "ECCENTRICITY": 0.0002977, "INCLINATION": 70.0005, "RA_OF_ASC_NODE": 159.7643, "ARG_OF_PERICENTER": 268.4686, "MEAN_ANOMALY": 91.616, "EPHEMERIS_TYPE": 0, "CLASSIFICATION_TYPE": "U", "NORAD_CAT_ID": 66826, "ELEMENT_SET_NO": 999, "REV_AT_EPOCH": 512, "BSTAR": 0.001199, "MEAN_MOTION_DOT": 0.000744, "MEAN_MOTION_DDOT": 0}, "tle": {"line1": "1 66826U 25280F   25360.84700782  .00074400  00000+0  11990-2 0  9993", "line2": "2 66826  70.0005 159.7643 0002977 268.4686  91.6160 15.52561106  5125"}}, "geometry": {"type": "Point", "coordinates": [97.14152164764951, -67.57532747598357]}}, {"type": "Feature", "properties": {"norad_id": 66827, "name": "STARLINK-35959", "group": "last-30-days", "lat": -66.62575604602867, "lon": 101.66784390664604, "alt_km": 413.32167526474495, "timestamp": "2025-12-27T02:10:14.908019+00:00", "meta": {"OBJECT_NAME": "STARLINK-35959", "OBJECT_ID": "2025-280G", "EPOCH": "2025-12-26T20:19:10.667136", "MEAN_MOTION": 15.52571593, "ECCENTRICITY": 0.0003423, "INCLINATION": 70.0004, "RA_OF_ASC_NODE": 159.7628, "ARG_OF_PERICENTER": 278.4637, "MEAN_ANOMALY": 81.6161, "EPHEMERIS_TYPE": 0, "CLASSIFICATION_TYPE": "U", "NORAD_CAT_ID": 66827, "ELEMENT_SET_NO": 999, "REV_AT_EPOCH": 512, "BSTAR": 0.0021876, "MEAN_MOTION_DOT": 0.00137023, "MEAN_MOTION_DDOT": 0}, "tle": {"line1": "1 66827U 25280G   25360.84665124  .00137023  00000+0  21876-2 0  9999", "line2": "2 66827  70.0004 159.7628 0003423 278.4637  81.6161 15.52571593  5123"}}, "geometry": {"type": "Point", "coordinates": [101.66784390664604, -66.62575604602867]}}, {"type": "Feature", "properties": {"norad_id": 66828, "name": "STARLINK-35982", "group": "last-30-days", "lat": -64.4683464628036, "lon": 109.40347059301499, "alt_km": 413.33067853682314, "timestamp": "2025-12-27T02:10:14.908029+00:00", "meta": {"OBJECT_NAME": "STARLINK-35982", "OBJECT_ID": "2025-280H", "EPOCH": "2025-12-26T20:18:10.729728", "MEAN_MOTION": 15.52563141, "ECCENTRICITY": 0.0003658, "INCLINATION": 70.0004, "RA_OF_ASC_NODE": 159.7603, "ARG_OF_PERICENTER": 269.1748, "MEAN_ANOMALY": 90.902, "EPHEMERIS_TYPE": 0, "CLASSIFICATION_TYPE": "U", "NORAD_CAT_ID": 66828, "ELEMENT_SET_NO": 999, "REV_AT_EPOCH": 512, "BSTAR": 0.0015373, "MEAN_MOTION_DOT": 0.00095709, "MEAN_MOTION_DDOT": 0}, "tle": {"line1": "1 66828U 25280H   25360.84595752  .00095709  00000+0  15373-2 0  9998", "line2": "2 66828  70.0004 159.7603 0003658 269.1748  90.9020 15.52563141  5124"}}, "geometry": {"type": "Point", "coordinates": [109.40347059301499, -64.4683464628036]}}, {"type": "Feature", "properties": {"norad_id": 66829, "name": "STARLINK-36084", "group": "last-30-days", "lat": -65.68764030485893, "lon": 105.3670857791301, "alt_km": 413.8127717221041, "timestamp": "2025-12-27T02:10:14.908039+00:00", "meta": {"OBJECT_NAME": "STARLINK-36084", "OBJECT_ID": "2025-280J", "EPOCH": "2025-12-26T18:45:55.213056", "MEAN_MOTION": 15.52481154, "ECCENTRICITY": 0.0003147, "INCLINATION": 70.0005, "RA_OF_ASC_NODE": 159.9379, "ARG_OF_PERICENTER": 277.532, "MEAN_ANOMALY": 82.5509, "EPHEMERIS_TYPE": 0, "CLASSIFICATION_TYPE": "U", "NORAD_CAT_ID": 66829, "ELEMENT_SET_NO": 999, "REV_AT_EPOCH": 511, "BSTAR": 0.0014009, "MEAN_MOTION_DOT": 0.00086844, "MEAN_MOTION_DDOT": 0}, "tle": {"line1": "1 66829U 25280J   25360.78188904  .00086844  00000+0  14009-2 0  9994", "line2": "2 66829  70.0005 159.9379 0003147 277.5320  82.5509 15.52481154  5111"}}, "geometry": {"type": "Point", "coordinates": [105.3670857791301, -65.68764030485893]}}]}